[{"OBJECT_NAME":"CS1","OBJECT_ID":"2021-088B","EPOCH":"2026-03-09T18:02:30.253920","MEAN_MOTION":15.31848439,"ECCENTRICITY":0.00141292,"INCLINATION":97.3882,"RA_OF_ASC_NODE":132.1684,"ARG_OF_PERICENTER":78.0335,"MEAN_ANOMALY":282.249,"EPHEMERIS_TYPE":0,"CLASSIFICATION_TYPE":"U","NORAD_CAT_ID":49261,"ELEMENT_SET_NO":999,"REV_AT_EPOCH":24518,"BSTAR":0.00051175576,"MEAN_MOTION_DOT":0.00015722,"MEAN_MOTION_DDOT":0},{"OBJECT_NAME":"STARLINK-35877","OBJECT_ID":"2025-294V","EPOCH":"2026-03-09T06:43:58.814112","MEAN_MOTION":15.27588364,"ECCENTRICITY":0.00018784,"INCLINATION":43.003,"RA_OF_ASC_NODE":40.6399,"ARG_OF_PERICENTER":255.1594,"MEAN_ANOMALY":104.905,"EPHEMERIS_TYPE":0,"CLASSIFICATION_TYPE":"U","NORAD_CAT_ID":67049,"ELEMENT_SET_NO":999,"REV_AT_EPOCH":1473,"BSTAR":0.00091411684,"MEAN_MOTION_DOT":0.00024984,"MEAN_MOTION_DDOT":0}]
