CS1                     
1 49261U 21088B   26068.75173904  .00015722  00000+0  51176-3 0  9998
2 49261  97.3882 132.1684 0014129  78.0335 282.2490 15.31848439245182
STARLINK-35877          
1 67049U 25294V   26068.28054183  .00024984  00000+0  91412-3 0  9997
2 67049  43.0030  40.6399 0001878 255.1594 104.9050 15.27588364 14737
